[{"OBJECT_NAME":"KUIPER-00187","OBJECT_ID":"2025-301J","EPOCH":"2026-02-01T22:00:01.999584","MEAN_MOTION":15.04472871,"ECCENTRICITY":0.00087385,"INCLINATION":51.8851,"RA_OF_ASC_NODE":240.3831,"ARG_OF_PERICENTER":288.1422,"MEAN_ANOMALY":23.3132,"EPHEMERIS_TYPE":0,"CLASSIFICATION_TYPE":"U","NORAD_CAT_ID":67141,"ELEMENT_SET_NO":999,"REV_AT_EPOCH":582,"BSTAR":-0.0026849915,"MEAN_MOTION_DOT":-0.0003811,"MEAN_MOTION_DDOT":0},{"OBJECT_NAME":"KUIPER-00188","OBJECT_ID":"2025-301K","EPOCH":"2026-02-01T19:02:52.110816","MEAN_MOTION":15.36658842,"ECCENTRICITY":0.00083842,"INCLINATION":51.8674,"RA_OF_ASC_NODE":238.9036,"ARG_OF_PERICENTER":261.4774,"MEAN_ANOMALY":98.5262,"EPHEMERIS_TYPE":0,"CLASSIFICATION_TYPE":"U","NORAD_CAT_ID":67142,"ELEMENT_SET_NO":999,"REV_AT_EPOCH":821,"BSTAR":0.00075125396,"MEAN_MOTION_DOT":0.00027049,"MEAN_MOTION_DDOT":0},{"OBJECT_NAME":"KUIPER-00191","OBJECT_ID":"2025-301L","EPOCH":"2026-02-01T22:00:01.999584","MEAN_MOTION":15.34307108,"ECCENTRICITY":0.00078519,"INCLINATION":51.8662,"RA_OF_ASC_NODE":238.263,"ARG_OF_PERICENTER":267.6179,"MEAN_ANOMALY":66.5295,"EPHEMERIS_TYPE":0,"CLASSIFICATION_TYPE":"U","NORAD_CAT_ID":67143,"ELEMENT_SET_NO":999,"REV_AT_EPOCH":581,"BSTAR":-0.023391607,"MEAN_MOTION_DOT":-0.00728873,"MEAN_MOTION_DDOT":0},{"OBJECT_NAME":"KUIPER-00196","OBJECT_ID":"2025-301M","EPOCH":"2026-02-01T23:02:08.448000","MEAN_MOTION":15.37369752,"ECCENTRICITY":0.00036265,"INCLINATION":51.8703,"RA_OF_ASC_NODE":237.783,"ARG_OF_PERICENTER":218.7649,"MEAN_ANOMALY":141.3078,"EPHEMERIS_TYPE":0,"CLASSIFICATION_TYPE":"U","NORAD_CAT_ID":67144,"ELEMENT_SET_NO":999,"REV_AT_EPOCH":824,"BSTAR":0.00097517625,"MEAN_MOTION_DOT":0.00036065,"MEAN_MOTION_DDOT":0},{"OBJECT_NAME":"KUIPER-00204","OBJECT_ID":"2025-301N","EPOCH":"2026-02-01T22:59:29.554944","MEAN_MOTION":15.25046825,"ECCENTRICITY":0.00035456,"INCLINATION":51.8852,"RA_OF_ASC_NODE":239.9225,"ARG_OF_PERICENTER":195.6593,"MEAN_ANOMALY":164.4279,"EPHEMERIS_TYPE":0,"CLASSIFICATION_TYPE":"U","NORAD_CAT_ID":67145,"ELEMENT_SET_NO":999,"REV_AT_EPOCH":832,"BSTAR":0.00056550334,"MEAN_MOTION_DOT":0.00014015,"MEAN_MOTION_DDOT":0},{"OBJECT_NAME":"KUIPER-00210","OBJECT_ID":"2025-301P","EPOCH":"2026-02-01T22:46:31.742400","MEAN_MOTION":15.35270577,"ECCENTRICITY":0.00111164,"INCLINATION":51.858,"RA_OF_ASC_NODE":238.3995,"ARG_OF_PERICENTER":282.87,"MEAN_ANOMALY":77.1044,"EPHEMERIS_TYPE":0,"CLASSIFICATION_TYPE":"U","NORAD_CAT_ID":67146,"ELEMENT_SET_NO":999,"REV_AT_EPOCH":840,"BSTAR":-0.0083612712,"MEAN_MOTION_DOT":-0.00281319,"MEAN_MOTION_DDOT":0},{"OBJECT_NAME":"KUIPER-00221","OBJECT_ID":"2025-301Q","EPOCH":"2026-02-01T22:00:01.999584","MEAN_MOTION":15.06816872,"ECCENTRICITY":0.000705,"INCLINATION":51.8882,"RA_OF_ASC_NODE":240.2838,"ARG_OF_PERICENTER":223.3225,"MEAN_ANOMALY":239.2221,"EPHEMERIS_TYPE":0,"CLASSIFICATION_TYPE":"U","NORAD_CAT_ID":67147,"ELEMENT_SET_NO":999,"REV_AT_EPOCH":560,"BSTAR":-0.10600367,"MEAN_MOTION_DOT":-0.01461783,"MEAN_MOTION_DDOT":0},{"OBJECT_NAME":"KUIPER-00232","OBJECT_ID":"2025-301R","EPOCH":"2026-02-01T22:37:39.569376","MEAN_MOTION":15.37726245,"ECCENTRICITY":0.00024391,"INCLINATION":51.8708,"RA_OF_ASC_NODE":237.6756,"ARG_OF_PERICENTER":154.078,"MEAN_ANOMALY":206.033,"EPHEMERIS_TYPE":0,"CLASSIFICATION_TYPE":"U","NORAD_CAT_ID":67148,"ELEMENT_SET_NO":999,"REV_AT_EPOCH":824,"BSTAR":0.00081640761,"MEAN_MOTION_DOT":0.00030458,"MEAN_MOTION_DDOT":0},{"OBJECT_NAME":"KUIPER-00241","OBJECT_ID":"2025-301S","EPOCH":"2026-02-01T22:00:01.999584","MEAN_MOTION":15.2876673,"ECCENTRICITY":0.00028066,"INCLINATION":51.8749,"RA_OF_ASC_NODE":238.2401,"ARG_OF_PERICENTER":241.2816,"MEAN_ANOMALY":126.3397,"EPHEMERIS_TYPE":0,"CLASSIFICATION_TYPE":"U","NORAD_CAT_ID":67149,"ELEMENT_SET_NO":999,"REV_AT_EPOCH":582,"BSTAR":-0.0017034378,"MEAN_MOTION_DOT":-0.00048364,"MEAN_MOTION_DDOT":0},{"OBJECT_NAME":"KUIPER-00245","OBJECT_ID":"2025-301T","EPOCH":"2026-02-01T22:00:01.999584","MEAN_MOTION":14.96165158,"ECCENTRICITY":0.00117693,"INCLINATION":51.8921,"RA_OF_ASC_NODE":242.046,"ARG_OF_PERICENTER":274.0668,"MEAN_ANOMALY":278.4436,"EPHEMERIS_TYPE":0,"CLASSIFICATION_TYPE":"U","NORAD_CAT_ID":67150,"ELEMENT_SET_NO":999,"REV_AT_EPOCH":558,"BSTAR":-0.0047364707,"MEAN_MOTION_DOT":-0.00053847,"MEAN_MOTION_DDOT":0},{"OBJECT_NAME":"KUIPER-00246","OBJECT_ID":"2025-301U","EPOCH":"2026-02-01T23:02:26.631744","MEAN_MOTION":15.37569936,"ECCENTRICITY":0.00045742,"INCLINATION":51.8698,"RA_OF_ASC_NODE":237.7851,"ARG_OF_PERICENTER":251.9106,"MEAN_ANOMALY":108.1382,"EPHEMERIS_TYPE":0,"CLASSIFICATION_TYPE":"U","NORAD_CAT_ID":67151,"ELEMENT_SET_NO":999,"REV_AT_EPOCH":826,"BSTAR":0.00078113813,"MEAN_MOTION_DOT":0.00028976,"MEAN_MOTION_DDOT":0},{"OBJECT_NAME":"KUIPER-00247","OBJECT_ID":"2025-301V","EPOCH":"2026-02-01T22:59:46.357152","MEAN_MOTION":15.35390567,"ECCENTRICITY":0.00122141,"INCLINATION":51.8612,"RA_OF_ASC_NODE":238.4699,"ARG_OF_PERICENTER":285.502,"MEAN_ANOMALY":74.4617,"EPHEMERIS_TYPE":0,"CLASSIFICATION_TYPE":"U","NORAD_CAT_ID":67152,"ELEMENT_SET_NO":999,"REV_AT_EPOCH":823,"BSTAR":0.00052115838,"MEAN_MOTION_DOT":0.00017888,"MEAN_MOTION_DDOT":0},{"OBJECT_NAME":"KUIPER-00248","OBJECT_ID":"2025-301W","EPOCH":"2026-02-01T22:30:33.873120","MEAN_MOTION":15.35936869,"ECCENTRICITY":0.00098731,"INCLINATION":51.8653,"RA_OF_ASC_NODE":238.359,"ARG_OF_PERICENTER":265.6447,"MEAN_ANOMALY":94.3411,"EPHEMERIS_TYPE":0,"CLASSIFICATION_TYPE":"U","NORAD_CAT_ID":67153,"ELEMENT_SET_NO":999,"REV_AT_EPOCH":840,"BSTAR":0.00074497975,"MEAN_MOTION_DOT":0.00026206,"MEAN_MOTION_DDOT":0},{"OBJECT_NAME":"KUIPER-00249","OBJECT_ID":"2025-301X","EPOCH":"2026-02-01T20:38:02.542560","MEAN_MOTION":15.36720341,"ECCENTRICITY":0.00090139,"INCLINATION":51.8635,"RA_OF_ASC_NODE":238.5792,"ARG_OF_PERICENTER":269.1694,"MEAN_ANOMALY":90.8259,"EPHEMERIS_TYPE":0,"CLASSIFICATION_TYPE":"U","NORAD_CAT_ID":67154,"ELEMENT_SET_NO":999,"REV_AT_EPOCH":822,"BSTAR":0.00072067269,"MEAN_MOTION_DOT":0.00025984,"MEAN_MOTION_DDOT":0},{"OBJECT_NAME":"KUIPER-00250","OBJECT_ID":"2025-301Y","EPOCH":"2026-02-01T20:14:16.215936","MEAN_MOTION":15.37308623,"ECCENTRICITY":0.00075451,"INCLINATION":51.869,"RA_OF_ASC_NODE":238.4952,"ARG_OF_PERICENTER":257.3866,"MEAN_ANOMALY":102.6277,"EPHEMERIS_TYPE":0,"CLASSIFICATION_TYPE":"U","NORAD_CAT_ID":67155,"ELEMENT_SET_NO":999,"REV_AT_EPOCH":825,"BSTAR":0.00055966609,"MEAN_MOTION_DOT":0.0002046,"MEAN_MOTION_DDOT":0},{"OBJECT_NAME":"KUIPER-00251","OBJECT_ID":"2025-301Z","EPOCH":"2026-02-01T20:49:27.708384","MEAN_MOTION":15.36253767,"ECCENTRICITY":0.00097944,"INCLINATION":51.8634,"RA_OF_ASC_NODE":238.6362,"ARG_OF_PERICENTER":269.2524,"MEAN_ANOMALY":90.734,"EPHEMERIS_TYPE":0,"CLASSIFICATION_TYPE":"U","NORAD_CAT_ID":67156,"ELEMENT_SET_NO":999,"REV_AT_EPOCH":841,"BSTAR":0.00070044737,"MEAN_MOTION_DOT":0.00024865,"MEAN_MOTION_DDOT":0}]
