KUIPER-00187            
1 67141U 25301J   26032.91668981 -.00038110  00000+0 -26850-2 0  9998
2 67141  51.8851 240.3831 0008738 288.1422  23.3132 15.04472871  5821
KUIPER-00188            
1 67142U 25301K   26032.79365869  .00027049  00000+0  75125-3 0  9991
2 67142  51.8674 238.9036 0008384 261.4774  98.5262 15.36658842  8219
KUIPER-00191            
1 67143U 25301L   26032.91668981 -.00728873  00000+0 -23392-1 0  9999
2 67143  51.8662 238.2630 0007851 267.6179  66.5295 15.34307108  5813
KUIPER-00196            
1 67144U 25301M   26032.95982000  .00036065  00000+0  97518-3 0  9991
2 67144  51.8703 237.7830 0003626 218.7649 141.3078 15.37369752  8248
KUIPER-00204            
1 67145U 25301N   26032.95798096  .00014015  00000+0  56550-3 0  9994
2 67145  51.8852 239.9225 0003545 195.6593 164.4279 15.25046825  8325
KUIPER-00210            
1 67146U 25301P   26032.94897850 -.00281319  00000+0 -83613-2 0  9996
2 67146  51.8580 238.3995 0011116 282.8700  77.1044 15.35270577  8406
KUIPER-00221            
1 67147U 25301Q   26032.91668981 -.01461783  00000+0 -10600+0 0  9994
2 67147  51.8882 240.2838 0007050 223.3225 239.2221 15.06816872  5603
KUIPER-00232            
1 67148U 25301R   26032.94281909  .00030458  00000+0  81641-3 0  9994
2 67148  51.8708 237.6756 0002439 154.0780 206.0330 15.37726245  8246
KUIPER-00241            
1 67149U 25301S   26032.91668981 -.00048364  00000+0 -17034-2 0  9992
2 67149  51.8749 238.2401 0002806 241.2816 126.3397 15.28766730  5824
KUIPER-00245            
1 67150U 25301T   26032.91668981 -.00053847  00000+0 -47365-2 0  9996
2 67150  51.8921 242.0460 0011769 274.0668 278.4436 14.96165158  5580
KUIPER-00246            
1 67151U 25301U   26032.96003046  .00028976  00000+0  78114-3 0  9997
2 67151  51.8698 237.7851 0004574 251.9106 108.1382 15.37569936  8269
KUIPER-00247            
1 67152U 25301V   26032.95817543  .00017888  00000+0  52116-3 0  9996
2 67152  51.8612 238.4699 0012214 285.5020  74.4617 15.35390567  8235
KUIPER-00248            
1 67153U 25301W   26032.93789205  .00026206  00000+0  74498-3 0  9999
2 67153  51.8653 238.3590 0009873 265.6447  94.3411 15.35936869  8402
KUIPER-00249            
1 67154U 25301X   26032.85975165  .00025984  00000+0  72067-3 0  9995
2 67154  51.8635 238.5792 0009013 269.1694  90.8259 15.36720341  8226
KUIPER-00250            
1 67155U 25301Y   26032.84324324  .00020460  00000+0  55967-3 0  9994
2 67155  51.8690 238.4952 0007545 257.3866 102.6277 15.37308623  8254
KUIPER-00251            
1 67156U 25301Z   26032.86768181  .00024865  00000+0  70045-3 0  9997
2 67156  51.8634 238.6362 0009794 269.2524  90.7340 15.36253767  8414
